      2.10          N: GNSS NAV DATA                        RINEX VERSION / TYPE
fic2rin                                 04/14/2022 00:17:34 PGM / RUN BY / DATE
                                                            END OF HEADER
25 22  4 13 18  0  0.0 3.114980645478e-04 5.002220859751e-12 0.000000000000e+00
    3.900000000000e+01 5.625000000000e+00 5.170215360223e-09-1.688283192892e+00
    3.911554813385e-07 1.055728399660e-02 3.635883331299e-06 5.153679021835e+03
    3.240000000000e+05 1.862645149231e-07 1.256403809096e+00 1.117587089539e-08
    9.569270329719e-01 3.048750000000e+02 9.984371140334e-01-8.389278018532e-09
    6.107397254753e-11 1.000000000000e+00 2.205000000000e+03 0.000000000000e+00
    2.400000000000e+00 0.000000000000e+00 5.587935447693e-09 3.900000000000e+01
    3.168000000000e+05 4.000000000000e+00
18 22  4 13 18  0  0.0 1.963684335351e-04-9.436007530894e-12 0.000000000000e+00
    2.270000000000e+02 7.925000000000e+01 4.180888436499e-09 1.821050094960e-01
    3.850087523460e-06 2.199190668762e-03 8.674338459969e-06 5.153612758636e+03
    3.240000000000e+05 5.401670932770e-08-2.906329475740e+00-5.587935447693e-09
    9.715004063657e-01 2.170312500000e+02 3.062120724659e+00-8.027120076057e-09
    2.232235838726e-10 1.000000000000e+00 2.205000000000e+03 0.000000000000e+00
    2.400000000000e+00 0.000000000000e+00-8.381903171539e-09 2.270000000000e+02
    3.168000000000e+05 4.000000000000e+00
23 22  4 13 18  0  0.0-1.466693356633e-05-2.842170943040e-12 0.000000000000e+00
    2.600000000000e+01-1.784375000000e+01 4.637336020802e-09-8.519289288194e-01
   -9.201467037201e-07 2.046702895314e-03 3.162771463394e-06 5.153701221466e+03
    3.240000000000e+05-1.490116119385e-08-1.906930487218e+00-1.285225152969e-07
    9.678087194264e-01 3.260937500000e+02 3.001909190413e+00-8.366419923543e-09
   -8.786080261224e-11 1.000000000000e+00 2.205000000000e+03 0.000000000000e+00
    2.400000000000e+00 0.000000000000e+00-8.381903171539e-09 5.380000000000e+02
    3.168000000000e+05 4.000000000000e+00
14 22  4 13 18  0  0.0-1.022149808705e-04-2.728484105319e-12 0.000000000000e+00
    1.590000000000e+02-2.343750000000e+00 5.253790270024e-09-1.365437933068e+00
   -1.974403858185e-07 1.699938438833e-03 3.745779395103e-06 5.153648340225e+03
    3.240000000000e+05 7.450580596924e-08 1.301646936717e+00-9.313225746155e-09
    9.528435941260e-01 3.030937500000e+02 3.052442057184e+00-8.570356989769e-09
   -9.643258823294e-12 1.000000000000e+00 2.205000000000e+03 0.000000000000e+00
    2.400000000000e+00 0.000000000000e+00-7.450580596924e-09 9.270000000000e+02
    3.168000000000e+05 4.000000000000e+00
11 22  4 13 18  0  0.0-4.086177796125e-05 7.048583938740e-12 0.000000000000e+00
    2.000000000000e+01 7.521875000000e+01 4.412326648258e-09 2.178156448548e+00
    3.967434167862e-06 3.151742275804e-04 8.305534720421e-06 5.153796394348e+03
    3.240000000000e+05-3.725290298462e-09-2.870888379087e+00 4.284083843231e-08
    9.628288628983e-01 2.217812500000e+02 2.677621475808e+00-8.071764792831e-09
    2.321525272275e-10 1.000000000000e+00 2.205000000000e+03 0.000000000000e+00
    2.400000000000e+00 6.300000000000e+01-8.847564458847e-09 7.880000000000e+02
    3.168000000000e+05 4.000000000000e+00
28 22  4 13 18  0  0.0 3.716880455613e-04-3.524291969370e-12 0.000000000000e+00
    5.600000000000e+01-6.656250000000e+00 4.828058250863e-09 2.562504180048e+00
   -4.060566425323e-07 1.664781710133e-02 3.809109330177e-06 5.153682250977e+03
    3.240000000000e+05 2.942979335785e-07 1.355916830647e+00-7.078051567078e-08
    9.684859334637e-01 3.080312500000e+02-1.282163833236e+00-8.103551831175e-09
   -2.132231673151e-10 1.000000000000e+00 2.205000000000e+03 0.000000000000e+00
    2.400000000000e+00 6.300000000000e+01-1.117587089539e-08 5.600000000000e+01
    3.168000000000e+05 4.000000000000e+00
 2 22  4 13 20  0  0.0-6.530857644975e-04-2.273736754432e-13 0.000000000000e+00
    2.600000000000e+01 5.378125000000e+01 4.366967616016e-09 1.095202662787e+00
    2.479180693626e-06 2.051020099316e-02 9.769573807716e-06 5.153645563126e+03
    3.312000000000e+05-2.514570951462e-07-3.003753292279e+00-4.321336746216e-07
    9.659316843490e-01 1.986875000000e+02-1.424547334092e+00-8.187841056445e-09
    2.075086435679e-10 1.000000000000e+00 2.205000000000e+03 0.000000000000e+00
    2.400000000000e+00 0.000000000000e+00-1.769512891769e-08 2.600000000000e+01
    3.240000000000e+05 4.000000000000e+00
 1 22  4 13 20  0  0.0 3.857892006636e-04-8.753886504564e-12 0.000000000000e+00
    7.500000000000e+01 7.678125000000e+01 3.946592962867e-09 9.529548870818e-01
    4.250556230545e-06 1.171290804632e-02 1.003406941891e-05 5.153671453476e+03
    3.312000000000e+05-6.332993507385e-08-2.913341575639e+00 1.154839992523e-07
    9.877067503621e-01 2.010000000000e+02 8.913164517993e-01-8.001761876929e-09
    2.235807416067e-10 1.000000000000e+00 2.205000000000e+03 0.000000000000e+00
    2.400000000000e+00 0.000000000000e+00 5.122274160385e-09 7.500000000000e+01
    3.240000000000e+05 4.000000000000e+00
 3 22  4 13 20  0  0.0-2.052937634289e-04-1.546140993014e-11 0.000000000000e+00
    2.900000000000e+01-1.309375000000e+01 4.706981778970e-09-1.693854853911e-01
   -6.929039955139e-07 4.035667167045e-03 2.644956111908e-06 5.153639926910e+03
    3.312000000000e+05-9.313225746155e-09-1.879063842026e+00 9.126961231232e-08
    9.729110836404e-01 3.324375000000e+02 9.422534072651e-01-8.486782079967e-09
   -1.017899542459e-10 1.000000000000e+00 2.205000000000e+03 0.000000000000e+00
    2.400000000000e+00 0.000000000000e+00 1.862645149231e-09 2.900000000000e+01
    3.240000000000e+05 4.000000000000e+00
 5 22  4 13 20  0  0.0-7.818639278412e-05-1.364242052659e-12 0.000000000000e+00
    1.090000000000e+02-9.125000000000e+00 4.826629619926e-09-2.668553469838e+00
   -4.488974809647e-07 5.912361317314e-03 2.801418304443e-06 5.153698455811e+03
    3.312000000000e+05 8.381903171539e-08-1.920246100701e+00-4.097819328308e-08
    9.599383167126e-01 3.255000000000e+02 1.009241309717e+00-8.368562869948e-09
   -1.035757429169e-11 1.000000000000e+00 2.205000000000e+03 0.000000000000e+00
    2.400000000000e+00 0.000000000000e+00-1.117587089539e-08 1.090000000000e+02
    3.240000000000e+05 4.000000000000e+00
 4 22  4 13 20  0  0.0-1.761708408594e-04 3.069544618484e-12 0.000000000000e+00
    1.190000000000e+02-9.003125000000e+01 4.262677557630e-09 2.679243998250e+00
   -4.624947905540e-06 1.770869363099e-03 1.075863838196e-05 5.153638418198e+03
    3.312000000000e+05 1.490116119385e-08-7.972434564357e-01-9.313225746155e-09
    9.612769686785e-01 1.722187500000e+02-2.982174402117e+00-7.951759794142e-09
   -3.221562762449e-10 1.000000000000e+00 2.205000000000e+03 0.000000000000e+00
    2.400000000000e+00 0.000000000000e+00-4.190951585770e-09 3.750000000000e+02
    3.240000000000e+05 4.000000000000e+00
12 22  4 13 20  0  0.0-1.998660154641e-04-5.798028723802e-12 0.000000000000e+00
    6.000000000000e+01-1.843750000000e+00 4.913418949336e-09-3.453334135514e-01
   -1.490116119385e-07 8.722344646230e-03 4.418194293976e-06 5.153561084747e+03
    3.312000000000e+05-7.078051567078e-08 1.333812877243e+00 4.470348358154e-08
    9.694191669423e-01 3.061875000000e+02 1.272512709582e+00-8.502854178006e-09
   -2.500104139373e-11 1.000000000000e+00 2.205000000000e+03 0.000000000000e+00
    2.400000000000e+00 0.000000000000e+00-1.257285475731e-08 6.000000000000e+01
    3.240000000000e+05 4.000000000000e+00
27 22  4 13 20  0  0.0 1.822155900300e-04 9.322320693173e-12 0.000000000000e+00
    1.800000000000e+01-3.771875000000e+01 4.178388332360e-09-3.119858923790e+00
   -2.093613147736e-06 1.050883717835e-02 1.098029315472e-05 5.153658046722e+03
    3.312000000000e+05-7.264316082001e-08 2.309168716432e+00-2.067536115646e-07
    9.727227256231e-01 1.730312500000e+02 6.668016900297e-01-7.713178427699e-09
   -4.728768400756e-10 1.000000000000e+00 2.205000000000e+03 0.000000000000e+00
    2.400000000000e+00 0.000000000000e+00 1.396983861923e-09 1.800000000000e+01
    3.240000000000e+05 4.000000000000e+00
16 22  4 13 20  0  0.0-4.913001321256e-04-3.865352482535e-12 0.000000000000e+00
    7.000000000000e+01-5.718750000000e+00 4.852344976788e-09-2.204980564188e+00
   -6.295740604401e-07 1.277852698695e-02 3.801658749580e-06 5.153626380920e+03
    3.312000000000e+05 1.788139343262e-07 1.352405442509e+00-1.043081283569e-07
    9.693257069579e-01 3.074375000000e+02 7.248246169061e-01-8.236771666030e-09
    6.214544575012e-11 1.000000000000e+00 2.205000000000e+03 0.000000000000e+00
    2.400000000000e+00 0.000000000000e+00-1.024454832077e-08 7.000000000000e+01
    3.240000000000e+05 4.000000000000e+00
10 22  4 13 20  0  0.0-3.782310523093e-04-1.273292582482e-11 0.000000000000e+00
    1.020000000000e+02-1.971875000000e+01 4.583405202938e-09-1.092311777204e+00
   -1.098960638046e-06 7.555266260169e-03 3.099441528320e-06 5.153675369263e+03
    3.312000000000e+05 1.750886440277e-07-1.881833243965e+00 1.862645149231e-09
    9.727279584811e-01 3.270312500000e+02-2.492958422388e+00-8.346419090428e-09
   -1.492919328940e-10 1.000000000000e+00 2.205000000000e+03 0.000000000000e+00
    2.400000000000e+00 0.000000000000e+00 2.328306436539e-09 1.020000000000e+02
    3.240000000000e+05 4.000000000000e+00
 8 22  4 13 20  0  0.0-6.379932165146e-05-1.591615728103e-12 0.000000000000e+00
    9.600000000000e+01-4.634375000000e+01 4.460900100109e-09-3.129650455395e+00
   -2.378597855568e-06 7.440452114679e-03 1.094304025173e-05 5.153748861313e+03
    3.312000000000e+05-1.154839992523e-07 2.289265426305e+00-5.029141902924e-08
    9.639842536535e-01 1.701562500000e+02 1.520561952366e-01-7.855327205909e-09
   -4.728768400756e-10 1.000000000000e+00 2.205000000000e+03 0.000000000000e+00
    3.400000000000e+00 0.000000000000e+00 5.122274160385e-09 9.600000000000e+01
    3.240000000000e+05 4.000000000000e+00
